[{"OBJECT_NAME":"GS-1","OBJECT_ID":"2023-060C","EPOCH":"2026-04-02T22:57:38.585376","MEAN_MOTION":1.00293836,"ECCENTRICITY":0.0004712,"INCLINATION":2.5322,"RA_OF_ASC_NODE":80.6921,"ARG_OF_PERICENTER":268.0252,"MEAN_ANOMALY":272.8865,"EPHEMERIS_TYPE":0,"CLASSIFICATION_TYPE":"U","NORAD_CAT_ID":56372,"ELEMENT_SET_NO":999,"REV_AT_EPOCH":678,"BSTAR":0,"MEAN_MOTION_DOT":-1.99e-6,"MEAN_MOTION_DDOT":0},{"OBJECT_NAME":"BEIDOU-3 G4","OBJECT_ID":"2023-066A","EPOCH":"2026-04-04T20:17:35.515680","MEAN_MOTION":1.00270926,"ECCENTRICITY":0.0002909,"INCLINATION":0.5937,"RA_OF_ASC_NODE":315.8583,"ARG_OF_PERICENTER":158.1678,"MEAN_ANOMALY":163.5882,"EPHEMERIS_TYPE":0,"CLASSIFICATION_TYPE":"U","NORAD_CAT_ID":56564,"ELEMENT_SET_NO":999,"REV_AT_EPOCH":1065,"BSTAR":0,"MEAN_MOTION_DOT":-2.81e-6,"MEAN_MOTION_DDOT":0},{"OBJECT_NAME":"ARABSAT-7B (BADR-8)","OBJECT_ID":"2023-075A","EPOCH":"2026-04-04T19:45:23.603040","MEAN_MOTION":1.00271352,"ECCENTRICITY":0.0005449,"INCLINATION":0.077,"RA_OF_ASC_NODE":28.1011,"ARG_OF_PERICENTER":336.7907,"MEAN_ANOMALY":150.5827,"EPHEMERIS_TYPE":0,"CLASSIFICATION_TYPE":"U","NORAD_CAT_ID":56757,"ELEMENT_SET_NO":999,"REV_AT_EPOCH":1038,"BSTAR":0,"MEAN_MOTION_DOT":1.45e-6,"MEAN_MOTION_DDOT":0},{"OBJECT_NAME":"NVS-01 (IRNSS-1J)","OBJECT_ID":"2023-076A","EPOCH":"2026-04-04T20:14:50.777664","MEAN_MOTION":1.00266577,"ECCENTRICITY":0.0006526,"INCLINATION":2.3418,"RA_OF_ASC_NODE":247.4421,"ARG_OF_PERICENTER":55.592,"MEAN_ANOMALY":323.2422,"EPHEMERIS_TYPE":0,"CLASSIFICATION_TYPE":"U","NORAD_CAT_ID":56759,"ELEMENT_SET_NO":999,"REV_AT_EPOCH":1038,"BSTAR":0,"MEAN_MOTION_DOT":-3.38e-6,"MEAN_MOTION_DDOT":0},{"OBJECT_NAME":"NUSANTARA TIGA (SATRIA)","OBJECT_ID":"2023-086A","EPOCH":"2026-04-04T10:03:25.125120","MEAN_MOTION":1.00270902,"ECCENTRICITY":0.00055006,"INCLINATION":0.0516,"RA_OF_ASC_NODE":311.1312,"ARG_OF_PERICENTER":21.4121,"MEAN_ANOMALY":157.0415,"EPHEMERIS_TYPE":0,"CLASSIFICATION_TYPE":"U","NORAD_CAT_ID":57045,"ELEMENT_SET_NO":999,"REV_AT_EPOCH":902,"BSTAR":0,"MEAN_MOTION_DOT":-2.35e-6,"MEAN_MOTION_DDOT":0},{"OBJECT_NAME":"H2SAT (HEINRICH HERTZ)","OBJECT_ID":"2023-093A","EPOCH":"2026-04-04T16:12:46.512576","MEAN_MOTION":1.00271601,"ECCENTRICITY":0.0001293,"INCLINATION":0.0124,"RA_OF_ASC_NODE":199.1679,"ARG_OF_PERICENTER":258.0916,"MEAN_ANOMALY":339.6153,"EPHEMERIS_TYPE":0,"CLASSIFICATION_TYPE":"U","NORAD_CAT_ID":57213,"ELEMENT_SET_NO":999,"REV_AT_EPOCH":1017,"BSTAR":0,"MEAN_MOTION_DOT":0,"MEAN_MOTION_DDOT":0},{"OBJECT_NAME":"SYRACUSE 4B","OBJECT_ID":"2023-093B","EPOCH":"2026-04-04T07:37:16.642272","MEAN_MOTION":1.00274154,"ECCENTRICITY":5.514e-5,"INCLINATION":0.0174,"RA_OF_ASC_NODE":184.185,"ARG_OF_PERICENTER":253.9514,"MEAN_ANOMALY":222.3317,"EPHEMERIS_TYPE":0,"CLASSIFICATION_TYPE":"U","NORAD_CAT_ID":57214,"ELEMENT_SET_NO":999,"REV_AT_EPOCH":622,"BSTAR":0,"MEAN_MOTION_DOT":-5.4e-7,"MEAN_MOTION_DDOT":0},{"OBJECT_NAME":"JUPITER 3 (ECHOSTAR 24)","OBJECT_ID":"2023-108A","EPOCH":"2026-04-03T17:32:31.184736","MEAN_MOTION":1.00274706,"ECCENTRICITY":0.00010369,"INCLINATION":0.0149,"RA_OF_ASC_NODE":219.8084,"ARG_OF_PERICENTER":139.9585,"MEAN_ANOMALY":0.2239,"EPHEMERIS_TYPE":0,"CLASSIFICATION_TYPE":"U","NORAD_CAT_ID":57479,"ELEMENT_SET_NO":999,"REV_AT_EPOCH":990,"BSTAR":0,"MEAN_MOTION_DOT":-1.52e-6,"MEAN_MOTION_DDOT":0},{"OBJECT_NAME":"GALAXY 37 (G-37)","OBJECT_ID":"2023-112A","EPOCH":"2026-04-04T15:36:20.006784","MEAN_MOTION":1.00271699,"ECCENTRICITY":0.0002092,"INCLINATION":0.0207,"RA_OF_ASC_NODE":108.271,"ARG_OF_PERICENTER":268.9221,"MEAN_ANOMALY":282.8408,"EPHEMERIS_TYPE":0,"CLASSIFICATION_TYPE":"U","NORAD_CAT_ID":57493,"ELEMENT_SET_NO":999,"REV_AT_EPOCH":980,"BSTAR":0,"MEAN_MOTION_DOT":4.8e-7,"MEAN_MOTION_DDOT":0},{"OBJECT_NAME":"LUDI TANCE-4 01A","OBJECT_ID":"2023-120A","EPOCH":"2026-04-04T18:39:14.696352","MEAN_MOTION":1.0027292,"ECCENTRICITY":0.0003564,"INCLINATION":15.1507,"RA_OF_ASC_NODE":195.7911,"ARG_OF_PERICENTER":111.5214,"MEAN_ANOMALY":255.148,"EPHEMERIS_TYPE":0,"CLASSIFICATION_TYPE":"U","NORAD_CAT_ID":57624,"ELEMENT_SET_NO":999,"REV_AT_EPOCH":981,"BSTAR":0,"MEAN_MOTION_DOT":-1.87e-6,"MEAN_MOTION_DDOT":0},{"OBJECT_NAME":"TJS-10","OBJECT_ID":"2023-169A","EPOCH":"2026-04-03T17:07:38.609184","MEAN_MOTION":1.00463027,"ECCENTRICITY":9.95e-5,"INCLINATION":2.3529,"RA_OF_ASC_NODE":81.3663,"ARG_OF_PERICENTER":51.7914,"MEAN_ANOMALY":30.6907,"EPHEMERIS_TYPE":0,"CLASSIFICATION_TYPE":"U","NORAD_CAT_ID":58204,"ELEMENT_SET_NO":999,"REV_AT_EPOCH":879,"BSTAR":0,"MEAN_MOTION_DOT":-1.3e-6,"MEAN_MOTION_DDOT":0},{"OBJECT_NAME":"ZHONGXING-6E","OBJECT_ID":"2023-172A","EPOCH":"2026-04-04T21:12:06.371712","MEAN_MOTION":1.00274479,"ECCENTRICITY":0.0002636,"INCLINATION":0.0148,"RA_OF_ASC_NODE":242.3333,"ARG_OF_PERICENTER":135.4933,"MEAN_ANOMALY":248.8957,"EPHEMERIS_TYPE":0,"CLASSIFICATION_TYPE":"U","NORAD_CAT_ID":58253,"ELEMENT_SET_NO":999,"REV_AT_EPOCH":892,"BSTAR":0,"MEAN_MOTION_DOT":-3.61e-6,"MEAN_MOTION_DDOT":0},{"OBJECT_NAME":"YAOGAN-41","OBJECT_ID":"2023-197A","EPOCH":"2026-04-03T16:50:13.242624","MEAN_MOTION":1.0027318,"ECCENTRICITY":0.00118655,"INCLINATION":3.2667,"RA_OF_ASC_NODE":312.0212,"ARG_OF_PERICENTER":181.2178,"MEAN_ANOMALY":74.59,"EPHEMERIS_TYPE":0,"CLASSIFICATION_TYPE":"U","NORAD_CAT_ID":58582,"ELEMENT_SET_NO":999,"REV_AT_EPOCH":857,"BSTAR":0,"MEAN_MOTION_DOT":-3.67e-6,"MEAN_MOTION_DDOT":0},{"OBJECT_NAME":"OVZON-3","OBJECT_ID":"2024-003A","EPOCH":"2026-04-04T21:23:08.568960","MEAN_MOTION":1.00274237,"ECCENTRICITY":2.06e-5,"INCLINATION":0.0108,"RA_OF_ASC_NODE":194.2465,"ARG_OF_PERICENTER":246.467,"MEAN_ANOMALY":132.9632,"EPHEMERIS_TYPE":0,"CLASSIFICATION_TYPE":"U","NORAD_CAT_ID":58698,"ELEMENT_SET_NO":999,"REV_AT_EPOCH":671,"BSTAR":0,"MEAN_MOTION_DOT":5.2e-7,"MEAN_MOTION_DDOT":0},{"OBJECT_NAME":"INSAT-3DS","OBJECT_ID":"2024-033A","EPOCH":"2026-04-04T20:01:22.071936","MEAN_MOTION":1.0027168,"ECCENTRICITY":0.0002184,"INCLINATION":0.041,"RA_OF_ASC_NODE":95.015,"ARG_OF_PERICENTER":286.2044,"MEAN_ANOMALY":194.3409,"EPHEMERIS_TYPE":0,"CLASSIFICATION_TYPE":"U","NORAD_CAT_ID":58990,"ELEMENT_SET_NO":999,"REV_AT_EPOCH":4633,"BSTAR":0,"MEAN_MOTION_DOT":-1.55e-6,"MEAN_MOTION_DDOT":0},{"OBJECT_NAME":"MERAH PUTIH 2","OBJECT_ID":"2024-035A","EPOCH":"2026-04-04T20:10:06.233952","MEAN_MOTION":1.00272644,"ECCENTRICITY":0.0001355,"INCLINATION":0.0108,"RA_OF_ASC_NODE":147.8412,"ARG_OF_PERICENTER":260.6663,"MEAN_ANOMALY":200.1212,"EPHEMERIS_TYPE":0,"CLASSIFICATION_TYPE":"U","NORAD_CAT_ID":58995,"ELEMENT_SET_NO":999,"REV_AT_EPOCH":785,"BSTAR":0,"MEAN_MOTION_DOT":-3.57e-6,"MEAN_MOTION_DDOT":0},{"OBJECT_NAME":"TJS-11","OBJECT_ID":"2024-037A","EPOCH":"2026-04-04T21:14:04.243776","MEAN_MOTION":1.00268823,"ECCENTRICITY":0.0005996,"INCLINATION":4.2975,"RA_OF_ASC_NODE":326.1708,"ARG_OF_PERICENTER":67.3491,"MEAN_ANOMALY":238.4799,"EPHEMERIS_TYPE":0,"CLASSIFICATION_TYPE":"U","NORAD_CAT_ID":59020,"ELEMENT_SET_NO":999,"REV_AT_EPOCH":784,"BSTAR":0,"MEAN_MOTION_DOT":-3.71e-6,"MEAN_MOTION_DDOT":0}]
