GS-1                    
1 56372U 23060C   26092.95669659 -.00000199  00000+0  00000+0 0  9996
2 56372   2.5322  80.6921 0004712 268.0252 272.8865  1.00293836  6785
BEIDOU-3 G4             
1 56564U 23066A   26094.84554995 -.00000281  00000+0  00000+0 0  9993
2 56564   0.5937 315.8583 0002909 158.1678 163.5882  1.00270926 10653
ARABSAT-7B (BADR-8)     
1 56757U 23075A   26094.82318985  .00000145  00000+0  00000+0 0  9990
2 56757   0.0770  28.1011 0005449 336.7907 150.5827  1.00271352 10387
NVS-01 (IRNSS-1J)       
1 56759U 23076A   26094.84364326 -.00000338  00000+0  00000+0 0  9990
2 56759   2.3418 247.4421 0006526  55.5920 323.2422  1.00266577 10385
NUSANTARA TIGA (SATRIA) 
1 57045U 23086A   26094.41904080 -.00000235  00000+0  00000+0 0  9996
2 57045   0.0516 311.1312 0005500  21.4121 157.0415  1.00270902  9023
H2SAT (HEINRICH HERTZ)  
1 57213U 23093A   26094.67553834  .00000000  00000+0  00000+0 0  9995
2 57213   0.0124 199.1679 0001293 258.0916 339.6153  1.00271601 10172
SYRACUSE 4B             
1 57214U 23093B   26094.31755373 -.00000054  00000+0  00000+0 0  9999
2 57214   0.0174 184.1850 0000551 253.9514 222.3317  1.00274154  6224
JUPITER 3 (ECHOSTAR 24) 
1 57479U 23108A   26093.73091649 -.00000152  00000+0  00000+0 0  9992
2 57479   0.0149 219.8084 0001036 139.9585   0.2239  1.00274706  9901
GALAXY 37 (G-37)        
1 57493U 23112A   26094.65023156  .00000048  00000+0  00000+0 0  9996
2 57493   0.0207 108.2710 0002092 268.9221 282.8408  1.00271699  9805
LUDI TANCE-4 01A        
1 57624U 23120A   26094.77725343 -.00000187  00000+0  00000+0 0  9996
2 57624  15.1507 195.7911 0003564 111.5214 255.1480  1.00272920  9817
TJS-10                  
1 58204U 23169A   26093.71364131 -.00000130  00000+0  00000+0 0  9999
2 58204   2.3529  81.3663 0000995  51.7914  30.6907  1.00463027  8791
ZHONGXING-6E            
1 58253U 23172A   26094.88340708 -.00000361  00000+0  00000+0 0  9996
2 58253   0.0148 242.3333 0002636 135.4933 248.8957  1.00274479  8929
YAOGAN-41               
1 58582U 23197A   26093.70154216 -.00000367  00000+0  00000+0 0  9991
2 58582   3.2667 312.0212 0011865 181.2178  74.5900  1.00273180  8571
OVZON-3                 
1 58698U 24003A   26094.89107140  .00000052  00000+0  00000+0 0  9991
2 58698   0.0108 194.2465 0000206 246.4670 132.9632  1.00274237  6711
INSAT-3DS               
1 58990U 24033A   26094.83428324 -.00000155  00000+0  00000+0 0  9998
2 58990   0.0410  95.0150 0002184 286.2044 194.3409  1.00271680 46330
MERAH PUTIH 2           
1 58995U 24035A   26094.84034993 -.00000357  00000+0  00000+0 0  9995
2 58995   0.0108 147.8412 0001355 260.6663 200.1212  1.00272644  7851
TJS-11                  
1 59020U 24037A   26094.88477134 -.00000371  00000+0  00000+0 0  9995
2 59020   4.2975 326.1708 0005996  67.3491 238.4799  1.00268823  7842
